{
  "norad_id": 52625,
  "name": "STARLINK-3988",
  "history": [
    {
      "epoch": "2026-03-28T17:42:03.785184Z",
      "apogee_km": 540.7912323248138,
      "perigee_km": 538.6785142547124,
      "latitude_deg": 7.510550179096932e-06,
      "longitude_deg": 91.94164177015053,
      "height_km": 540.6820387757474,
      "semi_major_axis_km": 6917.871873289763,
      "eccentricity": 0.0001527,
      "inclination_deg": 53.2166,
      "raan_deg": 183.6111,
      "arg_perigee_deg": 92.8094,
      "mean_anomaly_deg": 267.3073,
      "mean_motion_rev_day": 15.08842786
    }
  ]
}